IRIDIUM 57              
1 25273U 98019B   25033.52960671  .00000836  00000+0  28296-3 0  9991
2 25273  86.3977 201.6174 0002039  93.3634 266.7795 14.35713120405462
IRIDIUM 69              
1 25319U 98026A   25033.39607299  .00001456  00000+0  44970-3 0  9995
2 25319  86.4033 152.3512 0004325 102.5538 257.6145 14.40728724403650
IRIDIUM 73              
1 25344U 98032C   25033.22551127  .00001420  00000+0  35118-3 0  9995
2 25344  86.4404 104.1561 0002912  94.1507 266.0031 14.51401965410980
IRIDIUM 82              
1 25467U 98051A   25033.39801348  .00042747  00000+0  15333-2 0  9996
2 25467  86.3745 175.5281 0101730  85.7869 275.4994 15.23667434403371
